{
  "norad_id": 68368,
  "name": "RASSVET-3 9",
  "history": [
    {
      "epoch": "2026-03-31T15:46:03.215424Z",
      "apogee_km": 323.31838594743294,
      "perigee_km": 287.75855896377925,
      "latitude_deg": -6.46248626854711e-05,
      "longitude_deg": 34.16597472636281,
      "height_km": 296.0264268770627,
      "semi_major_axis_km": 6683.675472455606,
      "eccentricity": 0.0026602,
      "inclination_deg": 82.2968,
      "raan_deg": 99.7106,
      "arg_perigee_deg": 44.7263,
      "mean_anomaly_deg": 315.6146,
      "mean_motion_rev_day": 15.8883841
    }
  ]
}